<?xml version="1.0" encoding="UTF-8"?>
<ndm xmlns:xsi="http://www.w3.org/2001/XMLSchema-instance" xsi:noNamespaceSchemaLocation="https://sanaregistry.org/r/ndmxml_unqualified/ndmxml-2.0.0-master-2.0.xsd">
<omm id="CCSDS_OMM_VERS" version="2.0">
<header><CREATION_DATE/><ORIGINATOR/></header><body><segment><metadata><OBJECT_NAME>KUIPER-00053</OBJECT_NAME><OBJECT_ID>2025-134P</OBJECT_ID><CENTER_NAME>EARTH</CENTER_NAME><REF_FRAME>TEME</REF_FRAME><TIME_SYSTEM>UTC</TIME_SYSTEM><MEAN_ELEMENT_THEORY>SGP4</MEAN_ELEMENT_THEORY></metadata><data><meanElements><EPOCH>2025-10-26T12:00:00.998784</EPOCH><MEAN_MOTION>14.79757323</MEAN_MOTION><ECCENTRICITY>.0002112</ECCENTRICITY><INCLINATION>51.9004</INCLINATION><RA_OF_ASC_NODE>96.2040</RA_OF_ASC_NODE><ARG_OF_PERICENTER>216.0913</ARG_OF_PERICENTER><MEAN_ANOMALY>136.0729</MEAN_ANOMALY></meanElements><tleParameters><EPHEMERIS_TYPE>0</EPHEMERIS_TYPE><CLASSIFICATION_TYPE>U</CLASSIFICATION_TYPE><NORAD_CAT_ID>64513</NORAD_CAT_ID><ELEMENT_SET_NO>999</ELEMENT_SET_NO><REV_AT_EPOCH>555</REV_AT_EPOCH><BSTAR>-.56953E-3</BSTAR><MEAN_MOTION_DOT>-.4542E-4</MEAN_MOTION_DOT><MEAN_MOTION_DDOT>0</MEAN_MOTION_DDOT></tleParameters></data></segment></body></omm>
<omm id="CCSDS_OMM_VERS" version="2.0">
<header><CREATION_DATE/><ORIGINATOR/></header><body><segment><metadata><OBJECT_NAME>KUIPER-00054</OBJECT_NAME><OBJECT_ID>2025-134Q</OBJECT_ID><CENTER_NAME>EARTH</CENTER_NAME><REF_FRAME>TEME</REF_FRAME><TIME_SYSTEM>UTC</TIME_SYSTEM><MEAN_ELEMENT_THEORY>SGP4</MEAN_ELEMENT_THEORY></metadata><data><meanElements><EPOCH>2025-10-26T12:00:00.998784</EPOCH><MEAN_MOTION>14.95427705</MEAN_MOTION><ECCENTRICITY>.0005174</ECCENTRICITY><INCLINATION>51.8927</INCLINATION><RA_OF_ASC_NODE>92.0347</RA_OF_ASC_NODE><ARG_OF_PERICENTER>216.9732</ARG_OF_PERICENTER><MEAN_ANOMALY>55.5185</MEAN_ANOMALY></meanElements><tleParameters><EPHEMERIS_TYPE>0</EPHEMERIS_TYPE><CLASSIFICATION_TYPE>U</CLASSIFICATION_TYPE><NORAD_CAT_ID>64514</NORAD_CAT_ID><ELEMENT_SET_NO>999</ELEMENT_SET_NO><REV_AT_EPOCH>352</REV_AT_EPOCH><BSTAR>-.1547E+0</BSTAR><MEAN_MOTION_DOT>-.1587962E-1</MEAN_MOTION_DOT><MEAN_MOTION_DDOT>0</MEAN_MOTION_DDOT></tleParameters></data></segment></body></omm>
<omm id="CCSDS_OMM_VERS" version="2.0">
<header><CREATION_DATE/><ORIGINATOR/></header><body><segment><metadata><OBJECT_NAME>KUIPER-00055</OBJECT_NAME><OBJECT_ID>2025-134R</OBJECT_ID><CENTER_NAME>EARTH</CENTER_NAME><REF_FRAME>TEME</REF_FRAME><TIME_SYSTEM>UTC</TIME_SYSTEM><MEAN_ELEMENT_THEORY>SGP4</MEAN_ELEMENT_THEORY></metadata><data><meanElements><EPOCH>2025-10-26T10:39:33.532704</EPOCH><MEAN_MOTION>15.21013248</MEAN_MOTION><ECCENTRICITY>.0001447</ECCENTRICITY><INCLINATION>51.8896</INCLINATION><RA_OF_ASC_NODE>90.2298</RA_OF_ASC_NODE><ARG_OF_PERICENTER>4.9501</ARG_OF_PERICENTER><MEAN_ANOMALY>355.1493</MEAN_ANOMALY></meanElements><tleParameters><EPHEMERIS_TYPE>0</EPHEMERIS_TYPE><CLASSIFICATION_TYPE>U</CLASSIFICATION_TYPE><NORAD_CAT_ID>64515</NORAD_CAT_ID><ELEMENT_SET_NO>999</ELEMENT_SET_NO><REV_AT_EPOCH>2042</REV_AT_EPOCH><BSTAR>.10619E-2</BSTAR><MEAN_MOTION_DOT>.23623E-3</MEAN_MOTION_DOT><MEAN_MOTION_DDOT>0</MEAN_MOTION_DDOT></tleParameters></data></segment></body></omm>
<omm id="CCSDS_OMM_VERS" version="2.0">
<header><CREATION_DATE/><ORIGINATOR/></header><body><segment><metadata><OBJECT_NAME>KUIPER-00056</OBJECT_NAME><OBJECT_ID>2025-134S</OBJECT_ID><CENTER_NAME>EARTH</CENTER_NAME><REF_FRAME>TEME</REF_FRAME><TIME_SYSTEM>UTC</TIME_SYSTEM><MEAN_ELEMENT_THEORY>SGP4</MEAN_ELEMENT_THEORY></metadata><data><meanElements><EPOCH>2025-10-26T00:00:02.998944</EPOCH><MEAN_MOTION>14.79918540</MEAN_MOTION><ECCENTRICITY>.0002019</ECCENTRICITY><INCLINATION>51.9021</INCLINATION><RA_OF_ASC_NODE>99.7020</RA_OF_ASC_NODE><ARG_OF_PERICENTER>190.2776</ARG_OF_PERICENTER><MEAN_ANOMALY>250.2039</MEAN_ANOMALY></meanElements><tleParameters><EPHEMERIS_TYPE>0</EPHEMERIS_TYPE><CLASSIFICATION_TYPE>U</CLASSIFICATION_TYPE><NORAD_CAT_ID>64516</NORAD_CAT_ID><ELEMENT_SET_NO>999</ELEMENT_SET_NO><REV_AT_EPOCH>406</REV_AT_EPOCH><BSTAR>.55124E-3</BSTAR><MEAN_MOTION_DOT>.3982E-4</MEAN_MOTION_DOT><MEAN_MOTION_DDOT>0</MEAN_MOTION_DDOT></tleParameters></data></segment></body></omm>
<omm id="CCSDS_OMM_VERS" version="2.0">
<header><CREATION_DATE/><ORIGINATOR/></header><body><segment><metadata><OBJECT_NAME>KUIPER-00057</OBJECT_NAME><OBJECT_ID>2025-134T</OBJECT_ID><CENTER_NAME>EARTH</CENTER_NAME><REF_FRAME>TEME</REF_FRAME><TIME_SYSTEM>UTC</TIME_SYSTEM><MEAN_ELEMENT_THEORY>SGP4</MEAN_ELEMENT_THEORY></metadata><data><meanElements><EPOCH>2025-10-26T04:18:13.118400</EPOCH><MEAN_MOTION>14.79933064</MEAN_MOTION><ECCENTRICITY>.0009226</ECCENTRICITY><INCLINATION>51.8995</INCLINATION><RA_OF_ASC_NODE>106.4108</RA_OF_ASC_NODE><ARG_OF_PERICENTER>190.1683</ARG_OF_PERICENTER><MEAN_ANOMALY>169.9094</MEAN_ANOMALY></meanElements><tleParameters><EPHEMERIS_TYPE>0</EPHEMERIS_TYPE><CLASSIFICATION_TYPE>U</CLASSIFICATION_TYPE><NORAD_CAT_ID>64517</NORAD_CAT_ID><ELEMENT_SET_NO>999</ELEMENT_SET_NO><REV_AT_EPOCH>2017</REV_AT_EPOCH><BSTAR>.67699E-3</BSTAR><MEAN_MOTION_DOT>.4945E-4</MEAN_MOTION_DOT><MEAN_MOTION_DDOT>0</MEAN_MOTION_DDOT></tleParameters></data></segment></body></omm>
<omm id="CCSDS_OMM_VERS" version="2.0">
<header><CREATION_DATE/><ORIGINATOR/></header><body><segment><metadata><OBJECT_NAME>KUIPER-00058</OBJECT_NAME><OBJECT_ID>2025-134U</OBJECT_ID><CENTER_NAME>EARTH</CENTER_NAME><REF_FRAME>TEME</REF_FRAME><TIME_SYSTEM>UTC</TIME_SYSTEM><MEAN_ELEMENT_THEORY>SGP4</MEAN_ELEMENT_THEORY></metadata><data><meanElements><EPOCH>2025-10-25T18:45:01.092096</EPOCH><MEAN_MOTION>14.79889260</MEAN_MOTION><ECCENTRICITY>.0004455</ECCENTRICITY><INCLINATION>51.8997</INCLINATION><RA_OF_ASC_NODE>102.0875</RA_OF_ASC_NODE><ARG_OF_PERICENTER>220.8189</ARG_OF_PERICENTER><MEAN_ANOMALY>139.2440</MEAN_ANOMALY></meanElements><tleParameters><EPHEMERIS_TYPE>0</EPHEMERIS_TYPE><CLASSIFICATION_TYPE>U</CLASSIFICATION_TYPE><NORAD_CAT_ID>64518</NORAD_CAT_ID><ELEMENT_SET_NO>999</ELEMENT_SET_NO><REV_AT_EPOCH>2020</REV_AT_EPOCH><BSTAR>.18701124E-2</BSTAR><MEAN_MOTION_DOT>.14052E-3</MEAN_MOTION_DOT><MEAN_MOTION_DDOT>0</MEAN_MOTION_DDOT></tleParameters></data></segment></body></omm>
<omm id="CCSDS_OMM_VERS" version="2.0">
<header><CREATION_DATE/><ORIGINATOR/></header><body><segment><metadata><OBJECT_NAME>KUIPER-00059</OBJECT_NAME><OBJECT_ID>2025-134V</OBJECT_ID><CENTER_NAME>EARTH</CENTER_NAME><REF_FRAME>TEME</REF_FRAME><TIME_SYSTEM>UTC</TIME_SYSTEM><MEAN_ELEMENT_THEORY>SGP4</MEAN_ELEMENT_THEORY></metadata><data><meanElements><EPOCH>2025-10-26T12:00:00.998784</EPOCH><MEAN_MOTION>14.87664932</MEAN_MOTION><ECCENTRICITY>.000235</ECCENTRICITY><INCLINATION>51.8980</INCLINATION><RA_OF_ASC_NODE>94.1362</RA_OF_ASC_NODE><ARG_OF_PERICENTER>33.6346</ARG_OF_PERICENTER><MEAN_ANOMALY>65.7713</MEAN_ANOMALY></meanElements><tleParameters><EPHEMERIS_TYPE>0</EPHEMERIS_TYPE><CLASSIFICATION_TYPE>U</CLASSIFICATION_TYPE><NORAD_CAT_ID>64519</NORAD_CAT_ID><ELEMENT_SET_NO>999</ELEMENT_SET_NO><REV_AT_EPOCH>382</REV_AT_EPOCH><BSTAR>-.71589E-2</BSTAR><MEAN_MOTION_DOT>-.65428E-3</MEAN_MOTION_DOT><MEAN_MOTION_DDOT>0</MEAN_MOTION_DDOT></tleParameters></data></segment></body></omm>
<omm id="CCSDS_OMM_VERS" version="2.0">
<header><CREATION_DATE/><ORIGINATOR/></header><body><segment><metadata><OBJECT_NAME>KUIPER-00060</OBJECT_NAME><OBJECT_ID>2025-134W</OBJECT_ID><CENTER_NAME>EARTH</CENTER_NAME><REF_FRAME>TEME</REF_FRAME><TIME_SYSTEM>UTC</TIME_SYSTEM><MEAN_ELEMENT_THEORY>SGP4</MEAN_ELEMENT_THEORY></metadata><data><meanElements><EPOCH>2025-10-26T12:00:00.998784</EPOCH><MEAN_MOTION>14.80154405</MEAN_MOTION><ECCENTRICITY>.0002028</ECCENTRICITY><INCLINATION>51.9009</INCLINATION><RA_OF_ASC_NODE>95.0007</RA_OF_ASC_NODE><ARG_OF_PERICENTER>136.3465</ARG_OF_PERICENTER><MEAN_ANOMALY>74.6352</MEAN_ANOMALY></meanElements><tleParameters><EPHEMERIS_TYPE>0</EPHEMERIS_TYPE><CLASSIFICATION_TYPE>U</CLASSIFICATION_TYPE><NORAD_CAT_ID>64520</NORAD_CAT_ID><ELEMENT_SET_NO>999</ELEMENT_SET_NO><REV_AT_EPOCH>393</REV_AT_EPOCH><BSTAR>-.50785E-2</BSTAR><MEAN_MOTION_DOT>-.38919E-3</MEAN_MOTION_DOT><MEAN_MOTION_DDOT>0</MEAN_MOTION_DDOT></tleParameters></data></segment></body></omm>

</ndm>
