KUIPER-00053            
1 64513U 25134P   25299.50001156 -.00004542  00000+0 -56953-3 0  9996
2 64513  51.9004  96.2040 0002112 216.0913 136.0729 14.79757323  5550
KUIPER-00054            
1 64514U 25134Q   25299.50001156 -.01587962  00000+0 -15470+0 0  9995
2 64514  51.8927  92.0347 0005174 216.9732  55.5185 14.95427705  3529
KUIPER-00055            
1 64515U 25134R   25299.44413811  .00023623  00000+0  10619-2 0  9993
2 64515  51.8896  90.2298 0001447   4.9501 355.1493 15.21013248 20420
KUIPER-00056            
1 64516U 25134S   25299.00003471  .00003982  00000+0  55124-3 0  9990
2 64516  51.9021  99.7020 0002019 190.2776 250.2039 14.79918540  4062
KUIPER-00057            
1 64517U 25134T   25299.17931850  .00004945  00000+0  67699-3 0  9990
2 64517  51.8995 106.4108 0009226 190.1683 169.9094 14.79933064 20173
KUIPER-00058            
1 64518U 25134U   25298.78126264  .00014052  00000+0  18701-2 0  9991
2 64518  51.8997 102.0875 0004455 220.8189 139.2440 14.79889260 20207
KUIPER-00059            
1 64519U 25134V   25299.50001156 -.00065428  00000+0 -71589-2 0  9993
2 64519  51.8980  94.1362 0002350  33.6346  65.7713 14.87664932  3820
KUIPER-00060            
1 64520U 25134W   25299.50001156 -.00038919  00000+0 -50785-2 0  9995
2 64520  51.9009  95.0007 0002028 136.3465  74.6352 14.80154405  3938
